$$SOE
2459580.500000000, A.D. 2022-Jan-01 00:00:00.0000, 6.830154633755342E+08, 2.112498069151996E+08, -2.732685411688342E+08,
2459587.500000000, A.D. 2022-Jan-08 00:00:00.0000, 6.805694604278011E+08, 2.188051465661161E+08, -2.720816733802989E+08,
2459594.500000000, A.D. 2022-Jan-15 00:00:00.0000, 6.780495634207851E+08, 2.263366231878113E+08, -2.708652158679502E+08,
2459601.500000000, A.D. 2022-Jan-22 00:00:00.0000, 6.754559130001032E+08, 2.338433718693164E+08, -2.696192459190159E+08,
2459608.500000000, A.D. 2022-Jan-29 00:00:00.0000, 6.727886593990560E+08, 2.413245297847115E+08, -2.683438444043626E+08,
2459615.500000000, A.D. 2022-Feb-05 00:00:00.0000, 6.700479602779113E+08, 2.487792356352805E+08, -2.670390956470388E+08,
2459622.500000000, A.D. 2022-Feb-12 00:00:00.0000, 6.672339807355866E+08, 2.562066280248854E+08, -2.657050875754889E+08,
2459629.500000000, A.D. 2022-Feb-19 00:00:00.0000, 6.643468941687071E+08, 2.636058451374538E+08, -2.643419118462829E+08,
2459636.500000000, A.D. 2022-Feb-26 00:00:00.0000, 6.613868826665386E+08, 2.709760249936306E+08, -2.629496638752692E+08,
2459643.500000000, A.D. 2022-Mar-05 00:00:00.0000, 6.583541371010271E+08, 2.783163056697614E+08, -2.615284428424100E+08,
2459650.500000000, A.D. 2022-Mar-12 00:00:00.0000, 6.552488571337229E+08, 2.856258254135846E+08, -2.600783516962975E+08,
2459657.500000000, A.D. 2022-Mar-19 00:00:00.0000, 6.520712512106229E+08, 2.929037226848180E+08, -2.585994971628675E+08,
2459664.500000000, A.D. 2022-Mar-26 00:00:00.0000, 6.488215365672964E+08, 3.001491361148968E+08, -2.570919897611356E+08,
2459671.500000000, A.D. 2022-Apr-02 00:00:00.0000, 6.454999393120888E+08, 3.073612043302457E+08, -2.555559438370101E+08,
2459678.500000000, A.D. 2022-Apr-09 00:00:00.0000, 6.421066948594650E+08, 3.145390656441174E+08, -2.539914776399788E+08,
2459685.500000000, A.D. 2022-Apr-16 00:00:00.0000, 6.386420490705675E+08, 3.216818582711690E+08, -2.523987134221208E+08,
2459692.500000000, A.D. 2022-Apr-23 00:00:00.0000, 6.351062588318900E+08, 3.287887221491803E+08, -2.507777773544448E+08,
2459699.500000000, A.D. 2022-Apr-30 00:00:00.0000, 6.314995902018354E+08, 3.358588001230243E+08, -2.491287992725902E+08,
2459706.500000000, A.D. 2022-May-07 00:00:00.0000, 6.278223171881366E+08, 3.428912365175435E+08, -2.474519126943472E+08,
2459713.500000000, A.D. 2022-May-14 00:00:00.0000, 6.240747225455505E+08, 3.498851761374148E+08, -2.457472549881889E+08,
2459720.500000000, A.D. 2022-May-21 00:00:00.0000, 6.202570985625869E+08, 3.568397644527242E+08, -2.440149674444169E+08,
2459727.500000000, A.D. 2022-May-28 00:00:00.0000, 6.163697473584055E+08, 3.637541480115919E+08, -2.422551952833285E+08,
2459734.500000000, A.D. 2022-Jun-04 00:00:00.0000, 6.124129809670233E+08, 3.706274747671453E+08, -2.404680876513844E+08,
2459741.500000000, A.D. 2022-Jun-11 00:00:00.0000, 6.083871213535587E+08, 3.774588943211486E+08, -2.386537976184487E+08,
2459748.500000000, A.D. 2022-Jun-18 00:00:00.0000, 6.042925004012487E+08, 3.842475580977145E+08, -2.368124821785049E+08,
2459755.500000000, A.D. 2022-Jun-25 00:00:00.0000, 6.001294598987137E+08, 3.909926194140778E+08, -2.349443022591656E+08,
2459762.500000000, A.D. 2022-Jul-02 00:00:00.0000, 5.958983516615161E+08, 3.976932333828373E+08, -2.330494227575021E+08,
2459769.500000000, A.D. 2022-Jul-09 00:00:00.0000, 5.915995381782762E+08, 4.043485568227141E+08, -2.311280126233481E+08,
2459776.500000000, A.D. 2022-Jul-16 00:00:00.0000, 5.872333937259871E+08, 4.109577492605745E+08, -2.291802448962223E+08,
2459783.500000000, A.D. 2022-Jul-23 00:00:00.0000, 5.828003037557503E+08, 4.175199751024854E+08, -2.272062964874825E+08,
2459790.500000000, A.D. 2022-Jul-30 00:00:00.0000, 5.783006626329112E+08, 4.240344036202708E+08, -2.252063479893408E+08,
2459797.500000000, A.D. 2022-Aug-06 00:00:00.0000, 5.737348733306115E+08, 4.305002074018599E+08, -2.231805837878474E+08,
2459804.500000000, A.D. 2022-Aug-13 00:00:00.0000, 5.691033482535963E+08, 4.369165620197623E+08, -2.211291921790135E+08,
2459811.500000000, A.D. 2022-Aug-20 00:00:00.0000, 5.644065096228800E+08, 4.432826464142533E+08, -2.190523653850068E+08,
2459818.500000000, A.D. 2022-Aug-27 00:00:00.0000, 5.596447894894536E+08, 4.495976432647204E+08, -2.169502995358585E+08,
2459825.500000000, A.D. 2022-Sep-03 00:00:00.0000, 5.548186296250248E+08, 4.558607392385853E+08, -2.148231946483012E+08,
2459832.500000000, A.D. 2022-Sep-10 00:00:00.0000, 5.499284813799127E+08, 4.620711251416410E+08, -2.126712546079144E+08,
2459839.500000000, A.D. 2022-Sep-17 00:00:00.0000, 5.449748055374918E+08, 4.682279959679934E+08, -2.104946871573511E+08,
2459846.500000000, A.D. 2022-Sep-24 00:00:00.0000, 5.399580722255998E+08, 4.743305507986646E+08, -2.082937039003447E+08,
2459853.500000000, A.D. 2022-Oct-01 00:00:00.0000, 5.348787611248899E+08, 4.803779925265170E+08, -2.060685203454453E+08,
2459860.500000000, A.D. 2022-Oct-08 00:00:00.0000, 5.297373623814620E+08, 4.863695279294481E+08, -2.038193559843497E+08,
2459867.500000000, A.D. 2022-Oct-15 00:00:00.0000, 5.245343772918218E+08, 4.923043692907671E+08, -2.015464342214816E+08,
2459874.500000000, A.D. 2022-Oct-22 00:00:00.0000, 5.192703165782642E+08, 4.981817358827848E+08, -1.992499820924330E+08,
2459881.500000000, A.D. 2022-Oct-29 00:00:00.0000, 5.139456987525262E+08, 5.040008527203648E+08, -1.969302302126901E+08,
2459888.500000000, A.D. 2022-Nov-05 00:00:00.0000, 5.085610506672333E+08, 5.097609493254834E+08, -1.945874129255463E+08,
2459895.500000000, A.D. 2022-Nov-12 00:00:00.0000, 5.031169082901790E+08, 5.154612597697529E+08, -1.922217683655494E+08,
2459902.500000000, A.D. 2022-Nov-19 00:00:00.0000, 4.976138169818745E+08, 5.211010230407033E+08, -1.898335384495758E+08,
2459909.500000000, A.D. 2022-Nov-26 00:00:00.0000, 4.920523315384858E+08, 5.266794833344846E+08, -1.874229688521839E+08,
2459916.500000000, A.D. 2022-Dec-03 00:00:00.0000, 4.864330161661291E+08, 5.321958902634689E+08, -1.849903089815208E+08,
2459923.500000000, A.D. 2022-Dec-10 00:00:00.0000, 4.807564444320120E+08, 5.376494989974449E+08, -1.825358119584990E+08,
2459930.500000000, A.D. 2022-Dec-17 00:00:00.0000, 4.750231992171242E+08, 5.430395703134367E+08, -1.800597346035938E+08,
2459937.500000000, A.D. 2022-Dec-24 00:00:00.0000, 4.692338727798808E+08, 5.483653704883491E+08, -1.775623374466976E+08,
2459944.500000000, A.D. 2022-Dec-31 00:00:00.0000, 4.633890672884400E+08, 5.536261711419902E+08, -1.750438847840754E+08,
2459951.500000000, A.D. 2023-Jan-07 00:00:00.0000, 4.574893959445422E+08, 5.588212499927779E+08, -1.725046447150200E+08,
2459958.500000000, A.D. 2023-Jan-14 00:00:00.0000, 4.515354827317653E+08, 5.639498930226758E+08, -1.699448889370317E+08,
2459965.500000000, A.D. 2023-Jan-21 00:00:00.0000, 4.455279601432269E+08, 5.690113948787674E+08, -1.673648924995212E+08,
2459972.500000000, A.D. 2023-Jan-28 00:00:00.0000, 4.394674685569490E+08, 5.740050573162664E+08, -1.647649338685439E+08,
2459979.500000000, A.D. 2023-Feb-04 00:00:00.0000, 4.333546570506041E+08, 5.789301887105707E+08, -1.621452950359931E+08,
2459986.500000000, A.D. 2023-Feb-11 00:00:00.0000, 4.271901838604142E+08, 5.837861044445509E+08, -1.595062615242290E+08,
2459993.500000000, A.D. 2023-Feb-18 00:00:00.0000, 4.209747164209603E+08, 5.885721273478606E+08, -1.568481223474410E+08,
2460000.500000000, A.D. 2023-Feb-25 00:00:00.0000, 4.147089312487906E+08, 5.932875880264924E+08, -1.541711699668812E+08,
2460007.500000000, A.D. 2023-Mar-04 00:00:00.0000, 4.083935137721142E+08, 5.979318251013995E+08, -1.514757002475853E+08,
2460014.500000000, A.D. 2023-Mar-11 00:00:00.0000, 4.020291581352470E+08, 6.025041853567553E+08, -1.487620124189071E+08,
2460021.500000000, A.D. 2023-Mar-18 00:00:00.0000, 3.956165670248967E+08, 6.070040237485142E+08, -1.460304090469713E+08,
2460028.500000000, A.D. 2023-Mar-25 00:00:00.0000, 3.891564517216584E+08, 6.114307032263688E+08, -1.432811960413392E+08,
2460035.500000000, A.D. 2023-Apr-01 00:00:00.0000, 3.826495328014528E+08, 6.157835947628670E+08, -1.405146827025372E+08,
2460042.500000000, A.D. 2023-Apr-08 00:00:00.0000, 3.760965408718171E+08, 6.200620788148593E+08, -1.377311816537651E+08,
2460049.500000000, A.D. 2023-Apr-15 00:00:00.0000, 3.694982150060925E+08, 6.242655471110479E+08, -1.349310085325931E+08,
2460056.500000000, A.D. 2023-Apr-22 00:00:00.0000, 3.628553006846744E+08, 6.283934017139702E+08, -1.321144818579105E+08,
2460063.500000000, A.D. 2023-Apr-29 00:00:00.0000, 3.561685499787591E+08, 6.324450536096206E+08, -1.292819231390065E+08,
2460070.500000000, A.D. 2023-May-06 00:00:00.0000, 3.494387222166369E+08, 6.364199226057011E+08, -1.264336569198086E+08,
2460077.500000000, A.D. 2023-May-13 00:00:00.0000, 3.426665841557325E+08, 6.403174376447861E+08, -1.235700107417375E+08,
2460084.500000000, A.D. 2023-May-20 00:00:00.0000, 3.358529098945004E+08, 6.441370370412556E+08, -1.206913150869268E+08,
2460091.500000000, A.D. 2023-May-27 00:00:00.0000, 3.289984807176548E+08, 6.478781686125548E+08, -1.177979033221820E+08,
2460098.500000000, A.D. 2023-Jun-03 00:00:00.0000, 3.221040849323121E+08, 6.515402897307372E+08, -1.148901116470974E+08,
2460105.500000000, A.D. 2023-Jun-10 00:00:00.0000, 3.151705177188159E+08, 6.551228672805086E+08, -1.119682790499216E+08,
2460112.500000000, A.D. 2023-Jun-17 00:00:00.0000, 3.081985810852662E+08, 6.586253774636649E+08, -1.090327472845281E+08,
2460119.500000000, A.D. 2023-Jun-24 00:00:00.0000, 3.011890842457547E+08, 6.620473055055890E+08, -1.060838608935739E+08,
2460126.500000000, A.D. 2023-Jul-01 00:00:00.0000, 2.941428446755624E+08, 6.653881460919598E+08, -1.031219672336564E+08,
2460133.500000000, A.D. 2023-Jul-08 00:00:00.0000, 2.870606881694562E+08, 6.686474053575435E+08, -1.001474162819155E+08,
2460140.500000000, A.D. 2023-Jul-15 00:00:00.0000, 2.799434466261129E+08, 6.718246015969555E+08, -9.716056033824551E+07,
2460147.500000000, A.D. 2023-Jul-22 00:00:00.0000, 2.727919570798839E+08, 6.749192636632632E+08, -9.416175403077891E+07,
$$EOE